GLOBALSTAR M075         
1 37192U 10054E   25030.61514354 -.00000091  00000+0  73690-4 0  9990
2 37192  51.9927 240.4143 0001035  83.7676 311.0414 12.62272655659003
GLOBALSTAR M073         
1 37193U 10054F   25030.61098987 -.00000108  00000+0 -21364-4 0  9991
2 37193  52.0049 154.1401 0000942  99.6516 275.0177 12.62262781660460
GLOBALSTAR M083         
1 37739U 11033A   25030.57436374 -.00000080  00000+0  13480-3 0  9993
2 37739  51.9857 103.1699 0000439 117.5717  31.7471 12.62271210629835
GLOBALSTAR M088         
1 37740U 11033B   25030.20133861 -.00000102  00000+0  12373-4 0  9996
2 37740  51.9758   9.9130 0000222  58.2294 315.3066 12.62267833624978
GLOBALSTAR M091         
1 37741U 11033C   25030.85273712 -.00000080  00000+0  13355-3 0  9993
2 37741  52.0023 331.2406 0000378  24.5366  10.0621 12.62273272626108
GLOBALSTAR M085         
1 37742U 11033D   25030.47377944 -.00000059  00000+0  24915-3 0  9994
2 37742  51.9869 283.5562 0000662  54.8313 116.7350 12.62264867626306
GLOBALSTAR M081         
1 37743U 11033E   25030.42075348 -.00000067  00000+0  20471-3 0  9995
2 37743  51.9961 286.4177 0000855  50.8292 120.8657 12.62259952626440
GLOBALSTAR M089         
1 37744U 11033F   25030.50861487 -.00000082  00000+0  12153-3 0  9997
2 37744  51.9910 240.4046 0001232  81.6498 308.4820 12.62265884627303
